DTUSAT                  
1 27842U 03031C   08210.62258651  .00000018  00000-0  28476-4 0  3406
2 27842  98.7102 219.3071 0009559 343.1913  16.8948 14.20940079263392
CUTE-1 (CO-55)          
1 27844U 03031E   08210.21753483  .00000012  00000-0  25792-4 0  3600
2 27844  98.7155 217.9132 0010351   3.9684 356.1578 14.20589323263268
QUAKESAT                
1 27845U 03031F   08210.08186720  .00000028  00000-0  33488-4 0  3406
2 27845  98.7207 217.1565 0009744  20.5425 339.6133 14.20208097263169
AAU CUBESAT             
1 27846U 03031G   08209.98858859  .00000013  00000-0  26430-4 0  2821
2 27846  98.7094 218.6753 0009596 344.6526  15.4366 14.20941029263308
CANX-1                  
1 27847U 03031H   08209.99351971  .00000016  00000-0  27786-4 0  2958
2 27847  98.7099 218.6765 0009475 344.1161  15.9728 14.20927017263255
CUBESAT XI-IV (CO-57)   
1 27848U 03031J   08210.57336035  .00000002  00000-0  21262-4 0  3116
2 27848  98.7164 217.3527 0010369   5.7619 354.3676 14.20397889263286
UWE-1                   
1 28892U 05043C   08210.76272258 -.00000014  00000-0  67544-5 0  1080
2 28892  98.0902 103.4002 0016222 280.3114  79.6270 14.59647414146660
CUBESAT XI-V (CO-58)    
1 28895U 05043F   08210.18115675  .00000125  00000-0  35876-4 0   801
2 28895  98.0935 103.2108 0016810 282.9101  77.0209 14.59685821146467
NCUBE-2                 
1 28897U 05043H   08210.27796511  .00000078  00000-0  25968-4 0  6115
2 28897  98.0910 103.2318 0016274 284.5747  75.3639 14.59857366138760
CUTE-1.7+APD (CO-56)    
1 28941U 06005C   08211.07577729  .00014363  26329-5  10736-3 0  2381
2 28941  98.1081 327.5802 0159916 248.4850 109.9357 15.58465698136564
GENESAT-1               
1 29655U 06058C   08210.86174536  .00005840  00000-0  75462-4 0  4739
2 29655  40.0268  38.9374 0004364  14.5688 345.5247 15.59298023 91893
CSTB1                   
1 31122U 07012F   08211.17616242  .00000551  00000-0  13192-3 0  3983
2 31122  98.0396 275.2076 0085655 197.3135 162.5144 14.55146789 68189
MAST                    
1 31126U 07012K   08210.13418876  .00000052  00000-0  22591-4 0  3851
2 31126  98.0359 272.9285 0094386 204.4027 155.2705 14.53436901 67962
LIBERTAD-1              
1 31128U 07012M   08211.16541017 -.00000047  00000-0  00000+0 0  3920
2 31128  98.0359 272.8248 0102528 204.3457 155.2904 14.51963022 68022
POLYSAT CP3             
1 31129U 07012N   08211.13708265  .00000338  00000-0  89029-4 0  1583
2 31129  98.0355 272.8491 0101724 204.5005 155.1299 14.52055472 68003
CAPE1                   
1 31130U 07012P   08210.19495223  .00000269  00000-0  73211-4 0  3645
2 31130  98.0372 271.9023 0102239 207.3291 152.2503 14.51980615 67678
POLYSAT CP4             
1 31132U 07012Q   08211.17481370  .00000126  00000-0  38225-4 0  3732
2 31132  98.0397 275.1880 0085565 197.1292 162.7014 14.55133016 68058
NTS (CANX-6)            
1 32784U 08021B   08210.21331724  .00000248  00000-0  38976-4 0  1127
2 32784  97.9903 269.9898 0016098   1.2634 358.8607 14.80956622 13479
CUTE-1.7+APD II         
1 32785U 08021C   08211.20059611  .00000122  00000-0  22446-4 0  1159
2 32785  97.9894 271.0139 0015412   4.1790 355.9543 14.81379154 13629
COMPASS-1               
1 32787U 08021E   08210.18417288 -.00000007  00000-0  60513-5 0  1044
2 32787  97.9870 269.9561 0016031   9.2646 350.8851 14.81438481 13472
AAUSAT-II               
1 32788U 08021F   08211.12305083  .00000212  00000-0  33786-4 0  1058
2 32788  97.9873 270.9052 0015574   9.8392 350.3129 14.81548806 13610
DELFI-C3                
1 32789U 08021G   08211.19829060  .00000380  00000-0  55336-4 0  1143
2 32789  97.9904 270.9999 0015983   5.1951 354.9419 14.81438307 13627
CANX-2                  
1 32790U 08021H   08211.13312087  .00000087  00000-0  17992-4 0  1000
2 32790  97.9899 270.9408 0016118   4.6762 355.4600 14.81372864 13591
SEEDS II                
1 32791U 08021J   08211.20601863  .00000280  00000-0  42783-4 0  1036
2 32791  97.9884 270.9889 0016724   3.4242 356.7085 14.81297126 13590
PSLV DEB                
1 32797U 08021L   08211.11231109  .00001737  00000-0  22597-3 0   536
2 32797  97.9943 270.9879 0016629  12.1572 348.0006 14.81883401 12298
